[{"OBJECT_NAME":"QIANFAN-16","OBJECT_ID":"2024-140R","EPOCH":"2026-03-09T21:51:43.552800","MEAN_MOTION":13.50998466,"ECCENTRICITY":0.00136929,"INCLINATION":88.971,"RA_OF_ASC_NODE":290.3718,"ARG_OF_PERICENTER":326.9882,"MEAN_ANOMALY":33.0413,"EPHEMERIS_TYPE":0,"CLASSIFICATION_TYPE":"U","NORAD_CAT_ID":60394,"ELEMENT_SET_NO":999,"REV_AT_EPOCH":7894,"BSTAR":0.00010191129,"MEAN_MOTION_DOT":7.8e-7,"MEAN_MOTION_DDOT":0},{"OBJECT_NAME":"DELTA 1 DEB","OBJECT_ID":"1978-026CE","EPOCH":"2026-03-09T17:10:30.741312","MEAN_MOTION":13.97948759,"ECCENTRICITY":0.0241914,"INCLINATION":98.8091,"RA_OF_ASC_NODE":159.9351,"ARG_OF_PERICENTER":279.4794,"MEAN_ANOMALY":77.9105,"EPHEMERIS_TYPE":0,"CLASSIFICATION_TYPE":"U","NORAD_CAT_ID":12237,"ELEMENT_SET_NO":999,"REV_AT_EPOCH":23162,"BSTAR":0.0019798382,"MEAN_MOTION_DOT":3.56e-5,"MEAN_MOTION_DDOT":0}]
